{"type": "FeatureCollection", "features": [ {"type": "Feature", "properties": {"norad_id": 31901, "name": "FENGYUN 1C DEB", "group": "fengyun-1c-debris", "lat": -17.994524410729273, "lon": 138.73883062180857, "alt_km": 855.4018691843494, "timestamp": "2025-12-27T09:28:56.761332+00:00", "meta": {"OBJECT_NAME": "FENGYUN 1C DEB", "OBJECT_ID": "1999-025CLC", "EPOCH": "2025-12-24T15:05:28.271616", "MEAN_MOTION": 13.94148421, "ECCENTRICITY": 0.01318445, "INCLINATION": 98.6028, "RA_OF_ASC_NODE": 318.9801, "ARG_OF_PERICENTER": 156.6083, "MEAN_ANOMALY": 204.1152, "EPHEMERIS_TYPE": 0, "CLASSIFICATION_TYPE": "U", "NORAD_CAT_ID": 31901, "ELEMENT_SET_NO": 999, "REV_AT_EPOCH": 63573, "BSTAR": 0.00015032939, "MEAN_MOTION_DOT": 1.75e-06, "MEAN_MOTION_DDOT": 0}, "tle": {"line1": "1 31901U 99025CLC 25358.62879944  .00000175  00000+0  15033-3 0  9998", "line2": "2 31901  98.6028 318.9801 0131844 156.6083 204.1152 13.94148421635735"}}, "geometry": {"type": "Point", "coordinates": [138.73883062180857, -17.994524410729273]}}, {"type": "Feature", "properties": {"norad_id": 31902, "name": "FENGYUN 1C DEB", "group": "fengyun-1c-debris", "lat": -38.40193991497301, "lon": -12.39407830747813, "alt_km": 927.1345969210897, "timestamp": "2025-12-27T09:28:56.761342+00:00", "meta": {"OBJECT_NAME": "FENGYUN 1C DEB", "OBJECT_ID": "1999-025CLD", "EPOCH": "2025-12-23T10:12:05.114880", "MEAN_MOTION": 14.23289586, "ECCENTRICITY": 0.01812156, "INCLINATION": 98.5083, "RA_OF_ASC_NODE": 336.9513, "ARG_OF_PERICENTER": 118.1318, "MEAN_ANOMALY": 33.9215, "EPHEMERIS_TYPE": 0, "CLASSIFICATION_TYPE": "U", "NORAD_CAT_ID": 31902, "ELEMENT_SET_NO": 999, "REV_AT_EPOCH": 64943, "BSTAR": 0.00018583997, "MEAN_MOTION_DOT": 4.56e-06, "MEAN_MOTION_DDOT": 0}, "tle": {"line1": "1 31902U 99025CLD 25357.42505920  .00000456  00000+0  18584-3 0  9992", "line2": "2 31902  98.5083 336.9513 0181215 118.1318  33.9215 14.23289586649438"}}, "geometry": {"type": "Point", "coordinates": [-12.39407830747813, -38.40193991497301]}}, {"type": "Feature", "properties": {"norad_id": 31903, "name": "FENGYUN 1C DEB", "group": "fengyun-1c-debris", "lat": -24.364755592086198, "lon": -4.197842447336703, "alt_km": 608.9795459397246, "timestamp": "2025-12-27T09:28:56.761353+00:00", "meta": {"OBJECT_NAME": "FENGYUN 1C DEB", "OBJECT_ID": "1999-025CLE", "EPOCH": "2025-12-26T10:34:31.744416", "MEAN_MOTION": 14.60607026, "ECCENTRICITY": 0.0129168, "INCLINATION": 99.2755, "RA_OF_ASC_NODE": 350.4897, "ARG_OF_PERICENTER": 354.6599, "MEAN_ANOMALY": 5.3212, "EPHEMERIS_TYPE": 0, "CLASSIFICATION_TYPE": "U", "NORAD_CAT_ID": 31903, "ELEMENT_SET_NO": 999, "REV_AT_EPOCH": 97595, "BSTAR": 0.00089903, "MEAN_MOTION_DOT": 4.855e-05, "MEAN_MOTION_DDOT": 0}, "tle": {"line1": "1 31903U 99025CLE 25360.44064519  .00004855  00000+0  89903-3 0  9993", "line2": "2 31903  99.2755 350.4897 0129168 354.6599   5.3212 14.60607026975959"}}, "geometry": {"type": "Point", "coordinates": [-4.197842447336703, -24.364755592086198]}}, {"type": "Feature", "properties": {"norad_id": 31905, "name": "FENGYUN 1C DEB", "group": "fengyun-1c-debris", "lat": 65.63763904866063, "lon": -42.38374241315124, "alt_km": 638.9834184216697, "timestamp": "2025-12-27T09:28:56.761363+00:00", "meta": {"OBJECT_NAME": "FENGYUN 1C DEB", "OBJECT_ID": "1999-025CLG", "EPOCH": "2025-12-26T09:43:22.024128", "MEAN_MOTION": 14.33157016, "ECCENTRICITY": 0.0196755, "INCLINATION": 99.1517, "RA_OF_ASC_NODE": 337.4243, "ARG_OF_PERICENTER": 54.4234, "MEAN_ANOMALY": 307.511, "EPHEMERIS_TYPE": 0, "CLASSIFICATION_TYPE": "U", "NORAD_CAT_ID": 31905, "ELEMENT_SET_NO": 999, "REV_AT_EPOCH": 96820, "BSTAR": 0.00071523, "MEAN_MOTION_DOT": 2.383e-05, "MEAN_MOTION_DDOT": 0}, "tle": {"line1": "1 31905U 99025CLG 25360.40511602  .00002383  00000+0  71523-3 0  9994", "line2": "2 31905  99.1517 337.4243 0196755  54.4234 307.5110 14.33157016968206"}}, "geometry": {"type": "Point", "coordinates": [-42.38374241315124, 65.63763904866063]}}, {"type": "Feature", "properties": {"norad_id": 31906, "name": "FENGYUN 1C DEB", "group": "fengyun-1c-debris", "lat": -28.393587060562748, "lon": 139.11026561972744, "alt_km": 827.3957470467885, "timestamp": "2025-12-27T09:28:56.761374+00:00", "meta": {"OBJECT_NAME": "FENGYUN 1C DEB", "OBJECT_ID": "1999-025CLH", "EPOCH": "2025-12-23T08:06:59.919264", "MEAN_MOTION": 14.24747155, "ECCENTRICITY": 0.00502558, "INCLINATION": 98.6926, "RA_OF_ASC_NODE": 130.3508, "ARG_OF_PERICENTER": 93.4978, "MEAN_ANOMALY": 321.6196, "EPHEMERIS_TYPE": 0, "CLASSIFICATION_TYPE": "U", "NORAD_CAT_ID": 31906, "ELEMENT_SET_NO": 999, "REV_AT_EPOCH": 95280, "BSTAR": 0.0022581621, "MEAN_MOTION_DOT": 5.289e-05, "MEAN_MOTION_DDOT": 0}, "tle": {"line1": "1 31906U 99025CLH 25357.33819351  .00005289  00000+0  22582-2 0  9993", "line2": "2 31906  98.6926 130.3508 0050255  93.4978 321.6196 14.24747155952800"}}, "geometry": {"type": "Point", "coordinates": [139.11026561972744, -28.393587060562748]}}, {"type": "Feature", "properties": {"norad_id": 31910, "name": "FENGYUN 1C DEB", "group": "fengyun-1c-debris", "lat": -32.04286060942403, "lon": 26.097294957320933, "alt_km": 866.3522442494868, "timestamp": "2025-12-27T09:28:56.761384+00:00", "meta": {"OBJECT_NAME": "FENGYUN 1C DEB", "OBJECT_ID": "1999-025CLM", "EPOCH": "2025-12-22T06:53:08.957472", "MEAN_MOTION": 14.47708268, "ECCENTRICITY": 0.02283236, "INCLINATION": 97.6648, "RA_OF_ASC_NODE": 16.6258, "ARG_OF_PERICENTER": 125.9935, "MEAN_ANOMALY": 236.2666, "EPHEMERIS_TYPE": 0, "CLASSIFICATION_TYPE": "U", "NORAD_CAT_ID": 31910, "ELEMENT_SET_NO": 999, "REV_AT_EPOCH": 64507, "BSTAR": 0.00068637614, "MEAN_MOTION_DOT": 3.477e-05, "MEAN_MOTION_DDOT": 0}, "tle": {"line1": "1 31910U 99025CLM 25356.28690923  .00003477  00000+0  68638-3 0  9993", "line2": "2 31910  97.6648  16.6258 0228323 125.9935 236.2666 14.47708268645078"}}, "geometry": {"type": "Point", "coordinates": [26.097294957320933, -32.04286060942403]}}, {"type": "Feature", "properties": {"norad_id": 31913, "name": "FENGYUN 1C DEB", "group": "fengyun-1c-debris", "lat": 19.255039303935117, "lon": -80.87491466187574, "alt_km": 959.983982343434, "timestamp": "2025-12-27T09:28:56.761395+00:00", "meta": {"OBJECT_NAME": "FENGYUN 1C DEB", "OBJECT_ID": "1999-025CLQ", "EPOCH": "2025-12-25T12:31:08.673024", "MEAN_MOTION": 13.9142581, "ECCENTRICITY": 0.0201911, "INCLINATION": 99.2939, "RA_OF_ASC_NODE": 280.5274, "ARG_OF_PERICENTER": 279.2611, "MEAN_ANOMALY": 78.5764, "EPHEMERIS_TYPE": 0, "CLASSIFICATION_TYPE": "U", "NORAD_CAT_ID": 31913, "ELEMENT_SET_NO": 999, "REV_AT_EPOCH": 56064, "BSTAR": 0.0071027, "MEAN_MOTION_DOT": 0.00010564, "MEAN_MOTION_DDOT": 0}, "tle": {"line1": "1 31913U 99025CLQ 25359.52162816  .00010564  00000+0  71027-2 0  9991", "line2": "2 31913  99.2939 280.5274 0201911 279.2611  78.5764 13.91425810560642"}}, "geometry": {"type": "Point", "coordinates": [-80.87491466187574, 19.255039303935117]}}, {"type": "Feature", "properties": {"norad_id": 31914, "name": "FENGYUN 1C DEB", "group": "fengyun-1c-debris", "lat": -31.779723277572504, "lon": -128.72939145867795, "alt_km": 641.1626922765554, "timestamp": "2025-12-27T09:28:56.761405+00:00", "meta": {"OBJECT_NAME": "FENGYUN 1C DEB", "OBJECT_ID": "1999-025CLR", "EPOCH": "2025-12-24T13:59:36.613824", "MEAN_MOTION": 14.55730116, "ECCENTRICITY": 0.01827188, "INCLINATION": 99.0256, "RA_OF_ASC_NODE": 222.5796, "ARG_OF_PERICENTER": 33.5539, "MEAN_ANOMALY": 327.7073, "EPHEMERIS_TYPE": 0, "CLASSIFICATION_TYPE": "U", "NORAD_CAT_ID": 31914, "ELEMENT_SET_NO": 999, "REV_AT_EPOCH": 68645, "BSTAR": 0.00015271325, "MEAN_MOTION_DOT": 7.72e-06, "MEAN_MOTION_DDOT": 0}, "tle": {"line1": "1 31914U 99025CLR 25358.58306266  .00000772  00000+0  15271-3 0  9996", "line2": "2 31914  99.0256 222.5796 0182718  33.5539 327.7073 14.55730116686450"}}, "geometry": {"type": "Point", "coordinates": [-128.72939145867795, -31.779723277572504]}}, {"type": "Feature", "properties": {"norad_id": 31915, "name": "FENGYUN 1C DEB", "group": "fengyun-1c-debris", "lat": -76.76739390416151, "lon": 158.54156515638465, "alt_km": 783.2457852659827, "timestamp": "2025-12-27T09:28:56.761415+00:00", "meta": {"OBJECT_NAME": "FENGYUN 1C DEB", "OBJECT_ID": "1999-025CLS", "EPOCH": "2025-12-25T00:18:12.663648", "MEAN_MOTION": 14.16249035, "ECCENTRICITY": 0.01012958, "INCLINATION": 98.6305, "RA_OF_ASC_NODE": 16.4635, "ARG_OF_PERICENTER": 234.6009, "MEAN_ANOMALY": 124.5672, "EPHEMERIS_TYPE": 0, "CLASSIFICATION_TYPE": "U", "NORAD_CAT_ID": 31915, "ELEMENT_SET_NO": 999, "REV_AT_EPOCH": 64281, "BSTAR": 0.00072723702, "MEAN_MOTION_DOT": 1.472e-05, "MEAN_MOTION_DDOT": 0}, "tle": {"line1": "1 31915U 99025CLS 25359.01264657  .00001472  00000+0  72724-3 0  9997", "line2": "2 31915  98.6305  16.4635 0101295 234.6009 124.5672 14.16249035642812"}}, "geometry": {"type": "Point", "coordinates": [158.54156515638465, -76.76739390416151]}}, {"type": "Feature", "properties": {"norad_id": 31916, "name": "FENGYUN 1C DEB", "group": "fengyun-1c-debris", "lat": -59.93249917644212, "lon": -108.79894363643754, "alt_km": 893.4198128241142, "timestamp": "2025-12-27T09:28:56.761425+00:00", "meta": {"OBJECT_NAME": "FENGYUN 1C DEB", "OBJECT_ID": "1999-025CLT", "EPOCH": "2025-12-26T12:15:03.407040", "MEAN_MOTION": 14.32611964, "ECCENTRICITY": 0.014539, "INCLINATION": 99.3287, "RA_OF_ASC_NODE": 86.7446, "ARG_OF_PERICENTER": 56.8033, "MEAN_ANOMALY": 304.6993, "EPHEMERIS_TYPE": 0, "CLASSIFICATION_TYPE": "U", "NORAD_CAT_ID": 31916, "ELEMENT_SET_NO": 999, "REV_AT_EPOCH": 64724, "BSTAR": 0.0011673, "MEAN_MOTION_DOT": 3.514e-05, "MEAN_MOTION_DDOT": 0}, "tle": {"line1": "1 31916U 99025CLT 25360.51045610  .00003514  00000+0  11673-2 0  9995", "line2": "2 31916  99.3287  86.7446 0145390  56.8033 304.6993 14.32611964647246"}}, "geometry": {"type": "Point", "coordinates": [-108.79894363643754, -59.93249917644212]}}]}